IRIDIUM 124             
1 42810U 17039H   26063.29374139  .00000583  00000+0  16729-3 0  9993
2 42810  86.4539 334.2292 0002105  84.0452 276.0989 14.43269440459981
IRIDIUM 128             
1 42811U 17039J   26063.76567849  .00000040  00000+0  73854-5 0  9990
2 42811  86.3909  68.8058 0002057  95.2284 264.9147 14.34217824455016
IRIDIUM 121             
1 42812U 17039K   26063.44512661 -.00000011  00000+0 -10851-4 0  9995
2 42812  86.3962  37.4302 0002101  90.1164 270.0273 14.34217397454811
IRIDIUM 133             
1 42955U 17061A   26063.65785505  .00000023  00000+0  12409-5 0  9993
2 42955  86.3911  68.9664 0002147  90.3262 269.8180 14.34217601439795
IRIDIUM 100             
1 42956U 17061B   26063.51197479  .00000010  00000+0 -34010-5 0  9995
2 42956  86.3909  68.9486 0002036  90.1305 270.0124 14.34217431439779
IRIDIUM 122             
1 42957U 17061C   26063.48025926  .00000101  00000+0  28864-4 0  9998
2 42957  86.3909  68.9616 0002113  87.9810 272.1628 14.34218167439775
IRIDIUM 129             
1 42958U 17061D   26063.71493815  .00000069  00000+0  17442-4 0  9994
2 42958  86.3909  68.9292 0002534  86.9028 273.2458 14.34218188439825
IRIDIUM 119             
1 42959U 17061E   26063.47391979  .00000024  00000+0  16718-5 0  9993
2 42959  86.3911  69.0255 0002240  85.8726 274.2726 14.34217777439807
IRIDIUM 107             
1 42960U 17061F   26063.77202037  .00000054  00000+0  12195-4 0  9991
2 42960  86.3911  68.9214 0001890  86.5306 273.6106 14.34218026439852
IRIDIUM 132             
1 42961U 17061G   26063.49928868  .00000092  00000+0  25894-4 0  9990
2 42961  86.3910  69.0157 0002099  90.1542 269.9894 14.34218153439814
IRIDIUM 136             
1 42962U 17061H   26063.46123407  .00000003  00000+0 -58171-5 0  9992
2 42962  86.3909  69.0379 0002050  87.0912 273.0518 14.34217636439827
IRIDIUM 139             
1 42963U 17061J   26063.46757716  .00000014  00000+0 -19880-5 0  9995
2 42963  86.3912  69.0954 0002083  90.8420 269.3015 14.34217697439831
IRIDIUM 125             
1 42964U 17061K   26063.73396485  .00000038  00000+0  63683-5 0  9993
2 42964  86.3912  69.0432 0001999  75.0222 285.1195 14.34217914439885
IRIDIUM 135             
1 43070U 17083A   26063.77786550  .00000394  00000+0  13376-3 0  9993
2 43070  86.4018   5.6441 0002180  86.1759 273.9686 14.34218765429186
IRIDIUM 138             
1 43071U 17083B   26063.31485148  .00000059  00000+0  14146-4 0  9998
2 43071  86.4031   5.5170 0002360  77.1516 282.9944 14.34218026429100
IRIDIUM 116             
1 43072U 17083C   26063.77151797  .00000038  00000+0  65858-5 0  9993
2 43072  86.4018   5.6338 0002047  93.6188 266.5242 14.34217876429205
IRIDIUM 130             
1 43073U 17083D   26063.32119346  .00000164  00000+0  51675-4 0  9990
2 43073  86.4021   6.0866 0001915  88.2372 271.9043 14.34217532429083
